NOAA 1 [-]              
1 04793U 70106A   23073.95724105 -.00000036  00000+0  46243-4 0  9997
2 04793 101.5151 135.5437 0031990 155.1815  18.2842 12.54013000391492
NOAA 2 (ITOS-D) [-]     
1 06235U 72082A   23073.92468955 -.00000004  00000+0  26610-3 0  9990
2 06235 101.9863  63.1534 0003760 279.4430  95.5850 12.53159020305854
NOAA 3 [-]              
1 06920U 73086A   23074.48207706 -.00000011  00000+0  26245-3 0  9995
2 06920 102.2417  62.1391 0006588 149.4078 328.6802 12.40354366234583
NOAA 4 [-]              
1 07529U 74089A   23074.22091183 -.00000010  00000+0  23087-3 0  9997
2 07529 101.9494  59.9912 0008777 307.7730  63.7554 12.53166668210708
NOAA 5 [-]              
1 09057U 76077A   23073.69564743  .00000012  00000+0  44058-3 0  9993
2 09057 102.1428  44.2099 0009922   2.6908 170.0868 12.37781433107171
TIROS N [-]             
1 11060U 78096A   23073.86770453  .00000431  00000+0  22893-3 0  9997
2 11060  98.5966 124.9188 0011663  86.2944 273.9565 14.18514688509946
NOAA 6 [-]              
1 11416U 79057A   23074.50928266  .00000757  00000+0  28710-3 0  9994
2 11416  98.6582  90.7168 0010472 172.4544 187.6800 14.33968001280572
NOAA 7 [-]              
1 12553U 81059A   23073.88544421  .00000151  00000+0  96905-4 0  9999
2 12553  98.9598 126.1275 0012383  68.9042 291.3455 14.17389517156104
NOAA 8 [-]              
1 13923U 83022A   23074.49696981  .00000470  00000+0  20345-3 0  9998
2 13923  98.7098  69.2959 0015812 134.0908 226.1578 14.28932632 81373
NOAA 9 [-]              
1 15427U 84123A   23074.23741345  .00000401  00000+0  22500-3 0  9998
2 15427  99.0825  56.3728 0015708 116.4308 254.6443 14.16314514975176
NOAA 10 [-]             
1 16969U 86073A   23074.20875348  .00000438  00000+0  19269-3 0  9992
2 16969  98.5979  60.7756 0011186 236.6653 133.6262 14.28317173899746
NOAA 11 [-]             
1 19531U 88089A   23073.67907252  .00000237  00000+0  14233-3 0  9992
2 19531  98.4565  53.3162 0012137 117.4062 242.8349 14.15372482779049
NOAA 12 [-]             
1 21263U 91032A   23073.97793282  .00000338  00000+0  15939-3 0  9994
2 21263  98.5300  71.3997 0012453 267.8221  92.1534 14.26083470655285
NOAA 13 [-]             
1 22739U 93050A   23074.18081638  .00000405  00000+0  23946-3 0  9996
2 22739  98.5426  45.9757 0008475 291.9817  68.0455 14.12946597525522
NOAA 14 [-]             
1 23455U 94089A   23074.17504755  .00000171  00000+0  11089-3 0  9999
2 23455  98.4323  90.9752 0008307 265.4111  94.6114 14.14251994455212
NOAA 15 [B]             
1 25338U 98030A   23074.50495443  .00000393  00000+0  18206-3 0  9995
2 25338  98.6175 105.1173 0009675 222.2254 137.8182 14.26267782291909
NOAA 16 [-]             
1 26536U 00055A   23074.18148491  .00000198  00000+0  12780-3 0  9992
2 26536  98.5970 128.2143 0011588 110.9716 249.2698 14.13402049159093
NOAA 17 [-]             
1 27453U 02032A   23073.94051913  .00000507  00000+0  23426-3 0  9996
2 27453  98.7061  21.5021 0011260 200.5859 159.4868 14.25248375 77381
NOAA 18 [B]             
1 28654U 05018A   23074.44925201  .00000381  00000+0  22848-3 0  9990
2 28654  98.9167 149.2741 0013231 285.6473  74.3239 14.12887827918330
NOAA 19 [+]             
1 33591U 09005A   23074.48210662  .00000371  00000+0  22463-3 0  9990
2 33591  99.1135 118.8594 0014556 143.8602 216.3555 14.12709978726710
SUOMI NPP [+]           
1 37849U 11061A   23074.50538608  .00000266  00000+0  14698-3 0  9995
2 37849  98.7611  14.6527 0000956 104.9049   2.0358 14.19524219589645
NOAA 20 [+]             
1 43013U 17073A   23074.51855176  .00000254  00000+0  14146-3 0  9992
2 43013  98.7448  14.1813 0001255  63.6663 296.4641 14.19540524275689
NOAA 21 (JPSS-2) [+]    
1 54234U 22150A   23073.83091455  .00000297  00000+0  16155-3 0  9996
2 54234  98.7087  13.2989 0001095  75.8043 284.3254 14.19562018 17668
